ONEWEB-0427             
1 50499U 21132AG  24314.64648305  .00000165  00000+0  38550-3 0  9991
2 50499  87.9077  91.7641 0001385 105.1935 254.9350 13.18687117144578
ONEWEB-0429             
1 50500U 21132AH  24314.78557926  .00000091  00000+0  19706-3 0  9997
2 50500  87.9081  91.7511 0001674  90.6918 269.4405 13.18686622144563
ONEWEB-0430             
1 50501U 21132AJ  24314.62277217  .00000922  00000+0  23068-2 0  9991
2 50501  87.9077  91.7837 0001327  80.1045 280.0237 13.18680846144586
ONEWEB-0432             
1 50502U 21132AK  24315.10963485  .00000085  00000+0  18167-3 0  9990
2 50502  87.9079  91.6773 0000658 128.9408 231.1783 13.18683922145905
ONEWEB-0440             
1 50503U 21132AL  24314.64172821 -.00000102  00000+0 -29043-3 0  9992
2 50503  87.9083  91.7638 0002030  95.8032 264.3332 13.18686771144534
ONEWEB-0450             
1 50504U 21132AM  24314.78728708  .00000129  00000+0  29533-3 0  9990
2 50504  87.9085  91.7637 0001623  82.8214 277.3103 13.18683501144584
ONEWEB-0410             
1 51622U 22012A   24314.73658301  .00000021  00000+0  21894-4 0  9990
2 51622  87.9067 122.2753 0001875 142.2403 217.8861 13.17646753136730
ONEWEB-0411             
1 51623U 22012B   24314.80177107 -.00000222  00000+0 -67093-3 0  9994
2 51623  87.8897 152.6219 0001239  58.3003 301.8245 13.10369452132751
